NORAD_CAT_ID,OBJECT_NAME,OBJECT_TYPE,EPOCH,MEAN_MOTION,ECCENTRICITY,INCLINATION,RA_OF_ASC_NODE,ARG_OF_PERICENTER,MEAN_ANOMALY,BSTAR,MEAN_MOTION_DOT,MEAN_MOTION_DDOT,TLE_LINE0,TLE_LINE1,TLE_LINE2,SEMIMAJOR_AXIS,PERIOD,APOGEE,PERIGEE,DECAYED
52485.0,STARLINK-3913,PAYLOAD,2022-11-24 12:18:10,15.08835835,0.000192,53.22,41.4083,46.968,313.1472,-3.4606e-05,-8.39e-06,0.0,0 STARLINK-3913,1 52485U 22049AL  22328.51262312 -.00000839  00000-0 -34606-4 0  9995,2 52485  53.2200  41.4083 0001920  46.9680 313.1472 15.08835835 31217,6917.893,95.438,541.086,538.43,0.0
52485.0,STARLINK-3913,PAYLOAD,2022-11-25 12:08:57,15.08842086,0.0002152,53.2198,36.9476,39.4016,320.7132,0.00011191,1.493e-05,0.0,0 STARLINK-3913,1 52485U 22049AL  22329.50621764  .00001493  00000-0  11191-3 0  9993,2 52485  53.2198  36.9476 0002152  39.4016 320.7132 15.08842086 31365,6917.874,95.437,541.2280000000002,538.25,0.0
52485.0,STARLINK-3913,PAYLOAD,2022-11-25 16:55:06,15.08847967,0.0002115,53.2195,36.0554,41.006,319.1091,0.0001623,2.296e-05,0.0,0 STARLINK-3913,1 52485U 22049AL  22329.70493186  .00002296  00000-0  16230-3 0  9991,2 52485  53.2195  36.0554 0002115  41.0060 319.1091 15.08847967 31232,6917.856,95.437,541.184,538.258,0.0
52485.0,STARLINK-3913,PAYLOAD,2022-11-25 21:41:15,15.088498,0.0002164,53.2196,35.1633,39.8184,320.2966,0.0001460999999999,2.038e-05,0.0,0 STARLINK-3913,1 52485U 22049AL  22329.90365050  .00002038  00000-0  14610-3 0  9995,2 52485  53.2196  35.1633 0002164  39.8184 320.2966 15.08849800 31420,6917.85,95.437,541.212,538.2180000000002,0.0
52485.0,STARLINK-3913,PAYLOAD,2022-11-26 13:35:06,15.08847956,0.000201,53.2186,32.1901,41.0852,319.0292,0.00016729,2.376e-05,0.0,0 STARLINK-3913,1 52485U 22049AL  22330.56604762  .00002376  00000-0  16729-3 0  9993,2 52485  53.2186  32.1901 0002010  41.0852 319.0292 15.08847956 31362,6917.856,95.437,541.112,538.331,0.0
52485.0,STARLINK-3913,PAYLOAD,2022-11-26 16:45:52,15.08851086,0.000202,53.2184,31.5957,39.8618,320.2522,0.00018882,2.719e-05,0.0,0 STARLINK-3913,1 52485U 22049AL  22330.69852472  .00002719  00000-0  18882-3 0  9993,2 52485  53.2184  31.5957 0002020  39.8618 320.2522 15.08851086 31381,6917.847,95.437,541.109,538.314,0.0
52485.0,STARLINK-3913,PAYLOAD,2022-11-27 10:15:07,15.08844561,0.0001924,53.2178,28.3243,41.2435,318.8702,-5.7442e-05,-1.202e-05,0.0,0 STARLINK-3913,1 52485U 22049AL  22331.42717210 -.00001202  00000-0 -57442-4 0  9999,2 52485  53.2178  28.3243 0001924  41.2435 318.8702 15.08844561 31655,6917.866,95.437,541.062,538.4,0.0
52485.0,STARLINK-3913,PAYLOAD,2022-11-27 21:22:50,15.08834694,0.0001793,53.2176,26.2427,41.0429,319.0697,-0.00018372,-3.21e-05,0.0,0 STARLINK-3913,1 52485U 22049AL  22331.89086113 -.00003210  00000-0 -18372-3 0  9990,2 52485  53.2176  26.2427 0001793  41.0429 319.0697 15.08834694 31729,6917.897,95.438,541.002,538.521,0.0
52485.0,STARLINK-3913,PAYLOAD,2022-11-28 10:05:54,15.08838718,0.0001997,53.2182,23.8639,37.2103,322.9027,-3.386e-05,-8.27e-06,0.0,0 STARLINK-3913,1 52485U 22049AL  22332.42077511 -.00000827  00000-0 -33860-4 0  9993,2 52485  53.2182  23.8639 0001997  37.2103 322.9027 15.08838718 31806,6917.884,95.438,541.131,538.368,0.0
52485.0,STARLINK-3913,PAYLOAD,2022-11-28 13:16:40,15.08845166,0.0002062,53.2181,23.2694,36.8264,323.2869,-5.1239e-05,-1.104e-05,0.0,0 STARLINK-3913,1 52485U 22049AL  22332.55325171 -.00001104  00000-0 -51239-4 0  9994,2 52485  53.2181  23.2694 0002062  36.8264 323.2869 15.08845166 31664,6917.865,95.437,541.156,538.303,0.0
52485.0,STARLINK-3913,PAYLOAD,2022-11-29 06:45:55,15.08832288,0.0002119,53.218,19.9991,37.2116,322.9022,3.7282e-05,3.05e-06,0.0,0 STARLINK-3913,1 52485U 22049AL  22333.28189685  .00000305  00000-0  37282-4 0  9995,2 52485  53.2180  19.9991 0002119  37.2116 322.9022 15.08832288 31937,6917.904,95.438,541.235,538.303,0.0
52485.0,STARLINK-3913,PAYLOAD,2022-11-29 13:07:28,15.0883582,0.0002177,53.2177,18.8099,35.5479,324.5658,6.1379e-05,6.89e-06,0.0,0 STARLINK-3913,1 52485U 22049AL  22333.54685511  .00000689  00000-0  61379-4 0  9992,2 52485  53.2177  18.8099 0002177  35.5479 324.5658 15.08835820 31812,6917.893,95.438,541.264,538.252,0.0
52485.0,STARLINK-3913,PAYLOAD,2022-11-30 12:58:15,15.08837503,0.0002215,53.2179,14.3497,36.234,323.8802,3.9154e-05,3.35e-06,0.0,0 STARLINK-3913,1 52485U 22049AL  22334.54045887  .00000335  00000-0  39154-4 0  9993,2 52485  53.2179  14.3497 0002215  36.2340 323.8802 15.08837503 31964,6917.888000000001,95.438,541.285,538.221,0.0
52485.0,STARLINK-3913,PAYLOAD,2022-11-30 19:19:48,15.08837564,0.0002192,53.2184,13.1601,37.3285,322.7859,2.0666e-05,4.1e-07,0.0,0 STARLINK-3913,1 52485U 22049AL  22334.80541963  .00000041  00000-0  20666-4 0  9990,2 52485  53.2184  13.1601 0002192  37.3285 322.7859 15.08837564 32001,6917.888000000001,95.438,541.269,538.236,0.0
52485.0,STARLINK-3913,PAYLOAD,2022-12-01 09:38:16,15.08840454,0.0002121,53.2187,10.484000000000002,38.8282,321.2862,5.8022e-05,6.35e-06,0.0,0 STARLINK-3913,1 52485U 22049AL  22335.40157767  .00000635  00000-0  58022-4 0  9998,2 52485  53.2187  10.4840 0002121  38.8282 321.2862 15.08840454 32093,6917.879,95.438,541.211,538.2769999999998,0.0
52485.0,STARLINK-3913,PAYLOAD,2022-12-01 19:10:35,15.08833912,0.0002063,53.217,8.7008,35.5859,324.527,-1.2455e-05,-4.86e-06,0.0,0 STARLINK-3913,1 52485U 22049AL  22335.79902507 -.00000486  00000-0 -12455-4 0  9996,2 52485  53.2170   8.7008 0002063  35.5859 324.5270 15.08833912 32315,6917.899,95.438,541.191,538.337,0.0
52485.0,STARLINK-3913,PAYLOAD,2022-12-02 11:04:27,15.08829068,0.0001958,53.2189,5.7248,33.1783,326.9332,-2.9981e-05,-7.65e-06,0.0,0 STARLINK-3913,1 52485U 22049AL  22336.46142992 -.00000765  00000-0 -29981-4 0  9997,2 52485  53.2189   5.7248 0001958  33.1783 326.9332 15.08829068 32255,6917.9140000000025,95.438,541.133,538.424,0.0
52485.0,STARLINK-3913,PAYLOAD,2022-12-02 19:01:22,15.08837477,0.0002111,53.2184,4.2368,26.2791,333.8307,1.5626e-05,-4e-07,0.0,0 STARLINK-3913,1 52485U 22049AL  22336.79262401 -.00000040  00000-0  15626-4 0  9997,2 52485  53.2184   4.2368 0002111  26.2791 333.8307 15.08837477 32309,6917.888000000001,95.438,541.2130000000002,538.293,0.0
52485.0,STARLINK-3913,PAYLOAD,2022-12-03 06:09:04,15.08841752,0.0002053,53.2191,2.1572,34.2638,325.8486,8.0005e-05,9.85e-06,0.0,0 STARLINK-3913,1 52485U 22049AL  22337.25630041  .00000985  00000-0  80005-4 0  9998,2 52485  53.2191   2.1572 0002053  34.2638 325.8486 15.08841752 32530,6917.875,95.437,541.16,538.32,0.0
52485.0,STARLINK-3913,PAYLOAD,2022-12-03 10:55:14,15.08839172,0.0002094,53.2191,1.267,33.3724,326.74,3.3181e-05,2.4e-06,0.0,0 STARLINK-3913,1 52485U 22049AL  22337.45502409  .00000240  00000-0  33181-4 0  9993,2 52485  53.2191   1.2670 0002094  33.3724 326.7400 15.08839172 32405,6917.8830000000025,95.438,541.197,538.299,0.0
52485.0,STARLINK-3913,PAYLOAD,2022-12-03 18:52:10,15.08837566,0.0002178,53.2189,359.7798,34.2685,325.8447,-1.3643e-05,-5.05e-06,0.0,0 STARLINK-3913,1 52485U 22049AL  22337.78622719 -.00000505  00000-0 -13643-4 0  9993,2 52485  53.2189 359.7798 0002178  34.2685 325.8447 15.08837566 32612,6917.888000000001,95.438,541.26,538.246,0.0
52485.0,STARLINK-3913,PAYLOAD,2022-12-04 07:35:14,15.08843921,0.0002219,53.2185,357.3998,38.2961,321.8188,6.5651e-05,7.57e-06,0.0,0 STARLINK-3913,1 52485U 22049AL  22338.31614178  .00000757  00000-0  65651-4 0  9996,2 52485  53.2185 357.3998 0002219  38.2961 321.8188 15.08843921 32699,6917.868,95.437,541.268,538.198,0.0
52485.0,STARLINK-3913,PAYLOAD,2022-12-04 09:10:37,15.08842072,0.000237,53.218,357.1028,28.8671,331.2452,9.6908e-05,1.254e-05,0.0,0 STARLINK-3913,1 52485U 22049AL  22338.38238198  .00001254  00000-0  96908-4 0  9999,2 52485  53.2180 357.1028 0002370  28.8671 331.2452 15.08842072 32546,6917.874,95.437,541.379,538.1,0.0
52485.0,STARLINK-3913,PAYLOAD,2022-12-04 18:42:57,15.08837344,0.0002257,53.2182,355.3188,35.2736,324.8405,5.3357e-05,5.61e-06,0.0,0 STARLINK-3913,1 52485U 22049AL  22338.77982779  .00000561  00000-0  53357-4 0  9994,2 52485  53.2182 355.3188 0002257  35.2736 324.8405 15.08837344 32602,6917.889,95.438,541.315,538.192,0.0
52485.0,STARLINK-3913,PAYLOAD,2022-12-05 07:26:01,15.0885363,0.0002402,53.2184,352.9403,36.6187,323.4969,0.00010249,1.344e-05,0.0,0 STARLINK-3913,1 52485U 22049AL  22339.30973474  .00001344  00000-0  10249-3 0  9998,2 52485  53.2184 352.9403 0002402  36.6187 323.4969 15.08853630 32688,6917.839,95.437,541.365,538.0419999999998,0.0
52485.0,STARLINK-3913,PAYLOAD,2022-12-05 12:12:10,15.08845335,0.0002531,53.2186,352.0502,30.0918,330.0219,8.8459e-05,1.12e-05,0.0,0 STARLINK-3913,1 52485U 22049AL  22339.50846048  .00001120  00000-0  88459-4 0  9997,2 52485  53.2186 352.0502 0002531  30.0918 330.0219 15.08845335 32870,6917.864000000001,95.437,541.48,537.9780000000002,0.0
52485.0,STARLINK-3913,PAYLOAD,2022-12-05 18:33:43,15.08843727,0.0002278,53.2186,350.8599,32.299,327.8142,0.00011324,1.515e-05,0.0,0 STARLINK-3913,1 52485U 22049AL  22339.77341954  .00001515  00000-0  11324-3 0  9996,2 52485  53.2186 350.8599 0002278  32.2990 327.8142 15.08843727 32753,6917.869000000002,95.437,541.31,538.158,0.0
52485.0,STARLINK-3913,PAYLOAD,2022-12-06 12:02:58,15.08835601,0.0002346,53.219,347.5863,39.6666,320.4498,-7.6345e-05,-1.503e-05,0.0,0 STARLINK-3913,1 52485U 22049AL  22340.50206834 -.00001503  00000-0 -76345-4 0  9990,2 52485  53.2190 347.5863 0002346  39.6666 320.4498 15.08835601 33028,6917.894,95.438,541.382,538.136,0.0
52485.0,STARLINK-3913,PAYLOAD,2022-12-07 07:07:37,15.08827709,0.0002205,53.2184,344.0201,29.8247,330.2871,-9.1614e-05,-1.746e-05,0.0,0 STARLINK-3913,1 52485U 22049AL  22341.29695796 -.00001746  00000-0 -91614-4 0  9991,2 52485  53.2184 344.0201 0002205  29.8247 330.2871 15.08827709 33146,6917.918000000002,95.438,541.308,538.258,0.0
